STARLINK-37298          
1 68670U 26077J   26112.54516391 -.00167285  00000+0 -11415-2 0  9999
2 68670  97.2837 343.5952 0001857  97.3323 262.8153 15.75212679  1816
